NORAD_CAT_ID,OBJECT_NAME,OBJECT_TYPE,EPOCH,MEAN_MOTION,ECCENTRICITY,INCLINATION,RA_OF_ASC_NODE,ARG_OF_PERICENTER,MEAN_ANOMALY,BSTAR,MEAN_MOTION_DOT,MEAN_MOTION_DDOT,TLE_LINE0,TLE_LINE1,TLE_LINE2,SEMIMAJOR_AXIS,PERIOD,APOGEE,PERIGEE,DECAYED
51984.0,STARLINK-3664,PAYLOAD,2022-12-02 11:00:28,15.08836551,0.0002333,53.2184,355.7539,33.6438,326.4702,3.0322e-05,1.94e-06,0.0,0 STARLINK-3664,1 51984U 22025AE  22336.45866553  .00000194  00000-0  30322-4 0  9994,2 51984  53.2184 355.7539 0002333  33.6438 326.4702 15.08836551 40928,6917.891,95.438,541.37,538.1419999999998,0.0
51984.0,STARLINK-3664,PAYLOAD,2022-12-02 18:57:23,15.08851589,0.0002409,53.219,354.2667,33.8328,326.2817,-6.2687e-05,-1.286e-05,0.0,0 STARLINK-3664,1 51984U 22025AE  22336.78985824 -.00001286  00000-0 -62687-4 0  9997,2 51984  53.2190 354.2667 0002409  33.8328 326.2817 15.08851589 40973,6917.845,95.437,541.376,538.043,0.0
51984.0,STARLINK-3664,PAYLOAD,2022-12-03 07:40:29,15.08835177,0.0002289,53.2193,351.88800000000015,34.5804,325.5336,2.5482e-05,1.17e-06,0.0,0 STARLINK-3664,1 51984U 22025AE  22337.31978674  .00000117  00000-0  25482-4 0  9994,2 51984  53.2193 351.8880 0002289  34.5804 325.5336 15.08835177 42154,6917.895,95.438,541.344,538.177,0.0
51984.0,STARLINK-3664,PAYLOAD,2022-12-03 12:26:38,15.08859871,0.0002217,53.2186,350.9956,31.1828,328.9295,-0.00025001,-4.267e-05,0.0,0 STARLINK-3664,1 51984U 22025AE  22337.51850003 -.00004267  00000-0 -25001-3 0  9999,2 51984  53.2186 350.9956 0002217  31.1828 328.9295 15.08859871 41089,6917.82,95.436,541.2180000000002,538.151,0.0
51984.0,STARLINK-3664,PAYLOAD,2022-12-04 01:09:44,15.08828707,0.0002242,53.2188,348.6173,31.5375,328.5752,-6.2494e-05,-1.282e-05,0.0,0 STARLINK-3664,1 51984U 22025AE  22338.04843495 -.00001282  00000-0 -62494-4 0  9997,2 51984  53.2188 348.6173 0002242  31.5375 328.5752 15.08828707 42264,6917.915,95.438,541.331,538.229,0.0
51984.0,STARLINK-3664,PAYLOAD,2022-12-04 07:31:17,15.08833576,0.0002401,53.2184,347.4287,32.2201,327.8938,-2.534e-05,-6.92e-06,0.0,0 STARLINK-3664,1 51984U 22025AE  22338.31339267 -.00000692  00000-0 -25340-4 0  9997,2 51984  53.2184 347.4287 0002401  32.2201 327.8938 15.08833576 41207,6917.9,95.438,541.4259999999998,538.104,0.0
51984.0,STARLINK-3664,PAYLOAD,2022-12-05 01:00:31,15.08839431,0.000239,53.2181,344.1565,32.0092,328.1045,8.2215e-05,1.02e-05,0.0,0 STARLINK-3664,1 51984U 22025AE  22339.04202634  .00001020  00000-0  82215-4 0  9993,2 51984  53.2181 344.1565 0002390  32.0092 328.1045 15.08839431 42413,6917.882,95.438,541.401,538.094,0.0
51984.0,STARLINK-3664,PAYLOAD,2022-12-05 07:22:03,15.08838646,0.0002396,53.2184,342.9673,32.8499,327.2641,7.4628e-05,9e-06,0.0,0 STARLINK-3664,1 51984U 22025AE  22339.30698757  .00000900  00000-0  74628-4 0  9992,2 51984  53.2184 342.9673 0002396  32.8499 327.2641 15.08838646 41358,6917.885,95.438,541.4069999999998,538.092,0.0
51984.0,STARLINK-3664,PAYLOAD,2022-12-05 16:54:22,15.08846925,0.0002453,53.2182,341.1829,32.7111,327.4033,9.9193e-05,1.291e-05,0.0,0 STARLINK-3664,1 51984U 22025AE  22339.70442180  .00001291  00000-0  99193-4 0  9991,2 51984  53.2182 341.1829 0002453  32.7111 327.4033 15.08846925 41417,6917.859,95.437,541.4209999999998,538.0269999999998,0.0
51984.0,STARLINK-3664,PAYLOAD,2022-12-06 07:12:50,15.08841998,0.000244,53.2185,338.5064,31.7644,328.3495,0.0001512,2.119e-05,0.0,0 STARLINK-3664,1 51984U 22025AE  22340.30058299  .00002119  00000-0  15120-3 0  9990,2 51984  53.2185 338.5064 0002440  31.7644 328.3495 15.08841998 42606,6917.874,95.437,541.427,538.0509999999998,0.0
51984.0,STARLINK-3664,PAYLOAD,2022-12-06 16:45:10,15.08835117,0.0002525,53.2192,336.7232,33.3251,326.79,-2.4772e-05,-6.83e-06,0.0,0 STARLINK-3664,1 51984U 22025AE  22340.69803344 -.00000683  00000-0 -24772-4 0  9991,2 51984  53.2192 336.7232 0002525  33.3251 326.7900 15.08835117 42662,6917.895,95.438,541.507,538.014,0.0
51984.0,STARLINK-3664,PAYLOAD,2022-12-07 00:42:06,15.08828537,0.0002458,53.2186,335.2357,33.2495,326.8652,-6.8157e-05,-1.373e-05,0.0,0 STARLINK-3664,1 51984U 22025AE  22341.02923935 -.00001373  00000-0 -68157-4 0  9990,2 51984  53.2186 335.2357 0002458  33.2495 326.8652 15.08828537 42710,6917.915,95.438,541.481,538.08,0.0
51984.0,STARLINK-3664,PAYLOAD,2022-12-07 16:35:56,15.08842842,0.0002372,53.2182,332.2623,30.6187,329.4943,2.8712e-05,1.69e-06,0.0,0 STARLINK-3664,1 51984U 22025AE  22341.69163003  .00000169  00000-0  28712-4 0  9998,2 51984  53.2182 332.2623 0002372  30.6187 329.4943 15.08842842 42811,6917.871999999999,95.437,541.378,538.096,0.0
51984.0,STARLINK-3664,PAYLOAD,2022-12-08 00:32:51,15.08853581,0.0002357,53.218,330.7752,29.8978,330.2149,8.313299999999999e-05,1.035e-05,0.0,0 STARLINK-3664,1 51984U 22025AE  22342.02282090  .00001035  00000-0  83133-4 0  9995,2 51984  53.2180 330.7752 0002357  29.8978 330.2149 15.08853581 42861,6917.839,95.437,541.3340000000002,538.073,0.0
51984.0,STARLINK-3664,PAYLOAD,2022-12-08 05:19:01,15.08848735,0.0002328,53.2177,329.8831,29.8717,330.2408,0.00010073,1.316e-05,0.0,0 STARLINK-3664,1 51984U 22025AE  22342.22154277  .00001316  00000-0  10073-3 0  9996,2 51984  53.2177 329.8831 0002328  29.8717 330.2408 15.08848735 41797,6917.854,95.437,541.3290000000002,538.1080000000002,0.0
51984.0,STARLINK-3664,PAYLOAD,2022-12-08 16:26:43,15.08851565,0.0002356,53.2173,327.8018,30.5376,329.5753,0.00019381,2.799e-05,0.0,0 STARLINK-3664,1 51984U 22025AE  22342.68522045  .00002799  00000-0  19381-3 0  9995,2 51984  53.2173 327.8018 0002356  30.5376 329.5753 15.08851565 41866,6917.845,95.437,541.34,538.08,0.0
51984.0,STARLINK-3664,PAYLOAD,2022-12-09 05:09:47,15.08855005,0.0002341,53.2175,325.4218,31.6994,328.4139,0.00032409,4.876e-05,0.0,0 STARLINK-3664,1 51984U 22025AE  22343.21513658  .00004876  00000-0  32409-3 0  9999,2 51984  53.2175 325.4218 0002341  31.6994 328.4139 15.08855005 41944,6917.835,95.437,541.319,538.08,0.0
51984.0,STARLINK-3664,PAYLOAD,2022-12-09 16:17:30,15.08830818,0.0002015,53.2171,323.3431,355.2956,4.8017,-9.8039e-05,-1.848e-05,0.0,0 STARLINK-3664,1 51984U 22025AE  22343.67882396 -.00001848  00000-0 -98039-4 0  9997,2 51984  53.2171 323.3431 0002015 355.2956   4.8017 15.08830818 43111,6917.908,95.438,541.1669999999998,538.379,0.0
51984.0,STARLINK-3664,PAYLOAD,2022-12-10 08:11:22,15.0882949,0.000216,53.2178,320.3669,29.1197,330.9915,-0.0001098,-2.035e-05,0.0,0 STARLINK-3664,1 51984U 22025AE  22344.34123376 -.00002035  00000-0 -10980-3 0  9995,2 51984  53.2178 320.3669 0002160  29.1197 330.9915 15.08829490 42116,6917.913000000001,95.438,541.2719999999998,538.283,0.0
51984.0,STARLINK-3664,PAYLOAD,2022-12-11 01:40:36,15.08844991,0.0002232,53.2186,317.0973,30.2134,329.8986,0.00024674,3.641e-05,0.0,0 STARLINK-3664,1 51984U 22025AE  22345.06987063  .00003641  00000-0  24674-3 0  9993,2 51984  53.2186 317.0973 0002232  30.2134 329.8986 15.08844991 43322,6917.865,95.437,541.274,538.186,0.0
51984.0,STARLINK-3664,PAYLOAD,2022-12-11 08:02:09,15.08837607,0.0002489,53.2182,315.9063,30.693,329.4208,8.7911e-05,1.111e-05,0.0,0 STARLINK-3664,1 51984U 22025AE  22345.33483493  .00001111  00000-0  87911-4 0  9995,2 51984  53.2182 315.9063 0002489  30.6930 329.4208 15.08837607 43360,6917.888000000001,95.438,541.475,538.031,0.0
51984.0,STARLINK-3664,PAYLOAD,2022-12-12 01:31:25,15.08817268,0.0001844,53.2182,312.6354,347.1603,12.9342,0.0010962,0.0001719,0.0,0 STARLINK-3664,1 51984U 22025AE  22346.06348687  .00017190  00000-0  10962-2 0  9995,2 51984  53.2182 312.6354 0001844 347.1603  12.9342 15.08817268 43470,6917.95,95.439,541.091,538.539,0.0
51984.0,STARLINK-3664,PAYLOAD,2022-12-12 07:52:56,15.08841583,0.0002329,53.2181,311.4464,32.542,327.5715,0.00021543,3.142e-05,0.0,0 STARLINK-3664,1 51984U 22025AE  22346.32843618  .00003142  00000-0  21543-3 0  9998,2 51984  53.2181 311.4464 0002329  32.5420 327.5715 15.08841583 43510,6917.876,95.437,541.352,538.129,0.0
51984.0,STARLINK-3664,PAYLOAD,2022-12-13 07:43:44,15.08836768,0.0002393,53.2178,306.9869,33.3746,326.7397,-5.4633e-05,-1.158e-05,0.0,0 STARLINK-3664,1 51984U 22025AE  22347.32204110 -.00001158  00000-0 -54633-4 0  9991,2 51984  53.2178 306.9869 0002393  33.3746 326.7397 15.08836768 43667,6917.89,95.438,541.411,538.1,0.0
51984.0,STARLINK-3664,PAYLOAD,2022-12-14 01:12:58,15.08844304,0.0002036,53.2182,303.7162,42.1859,317.9290000000001,1.4915e-05,-5.1e-07,0.0,0 STARLINK-3664,1 51984U 22025AE  22348.05067494 -.00000051  00000-0  14915-4 0  9993,2 51984  53.2182 303.7162 0002036  42.1859 317.9290 15.08844304 43771,6917.8669999999975,95.437,541.141,538.3240000000002,0.0
51984.0,STARLINK-3664,PAYLOAD,2022-12-14 07:34:31,15.08840434,0.0002224,53.2181,302.5265,37.2296,322.885,-9.4136e-06,-4.38e-06,0.0,0 STARLINK-3664,1 51984U 22025AE  22348.31563809 -.00000438  00000-0 -94136-5 0  9997,2 51984  53.2181 302.5265 0002224  37.2296 322.8850 15.08840434 42710,6917.879,95.438,541.283,538.206,0.0
51984.0,STARLINK-3664,PAYLOAD,2022-12-14 13:56:03,15.08844386,0.0002466,53.2182,301.3369,34.668,325.4472,0.00011001,1.463e-05,0.0,0 STARLINK-3664,1 51984U 22025AE  22348.58059300  .00001463  00000-0  11001-3 0  9997,2 51984  53.2182 301.3369 0002466  34.6680 325.4472 15.08844386 42752,6917.8669999999975,95.437,541.438,538.026,0.0
51984.0,STARLINK-3664,PAYLOAD,2022-12-15 05:49:55,15.08833512,0.0002473,53.2185,298.3633,37.8264,322.2901,4.2483e-05,3.88e-06,0.0,0 STARLINK-3664,1 51984U 22025AE  22349.24300265  .00000388  00000-0  42483-4 0  9994,2 51984  53.2185 298.3633 0002473  37.8264 322.2901 15.08833512 43959,6917.9,95.438,541.476,538.054,0.0
51984.0,STARLINK-3664,PAYLOAD,2022-12-15 20:08:22,15.08847651,0.0002244,53.2177,295.6862,32.9837,327.1295,0.00014373,2e-05,0.0,0 STARLINK-3664,1 51984U 22025AE  22349.83915120  .00002000  00000-0  14373-3 0  9990,2 51984  53.2177 295.6862 0002244  32.9837 327.1295 15.08847651 42949,6917.857,95.437,541.274,538.17,0.0
